[{"OBJECT_NAME":"STARLINK-31334","OBJECT_ID":"2024-044F","EPOCH":"2026-03-09T19:35:27.224448","MEAN_MOTION":15.27573584,"ECCENTRICITY":0.00013039,"INCLINATION":43.0034,"RA_OF_ASC_NODE":109.8659,"ARG_OF_PERICENTER":290.5191,"MEAN_ANOMALY":69.5521,"EPHEMERIS_TYPE":0,"CLASSIFICATION_TYPE":"U","NORAD_CAT_ID":59157,"ELEMENT_SET_NO":999,"REV_AT_EPOCH":11354,"BSTAR":-6.8658166e-5,"MEAN_MOTION_DOT":-2.151e-5,"MEAN_MOTION_DDOT":0},{"OBJECT_NAME":"TROLL","OBJECT_ID":"2025-009BB","EPOCH":"2026-03-09T05:24:19.835712","MEAN_MOTION":15.28164315,"ECCENTRICITY":0.00018165,"INCLINATION":97.3932,"RA_OF_ASC_NODE":150.7169,"ARG_OF_PERICENTER":59.185,"MEAN_ANOMALY":300.9568,"EPHEMERIS_TYPE":0,"CLASSIFICATION_TYPE":"U","NORAD_CAT_ID":62658,"ELEMENT_SET_NO":999,"REV_AT_EPOCH":11817,"BSTAR":0.00048220305,"MEAN_MOTION_DOT":0.00013174,"MEAN_MOTION_DDOT":0}]
